0 FENGYUN 1C DEB
1 29776U 99025BS  13283.82848648 -.00000096  00000-0 -30936-4 0   534
2 29776 099.0776 271.9032 0025459 091.0847 026.9859 14.05776736345882
0 FENGYUN 1C DEB
1 29776U 99025BS  13285.95082531  .00000014  00000-0  36186-4 0   543
2 29776 099.0775 274.0295 0025351 085.4167 327.4759 14.05776305346183
0 FENGYUN 1C DEB
1 29776U 99025BS  13288.52615025  .00000319  00000-0  22220-3 0   551
2 29776 099.0778 276.6093 0025248 078.4842 040.4428 14.05776014346549
0 FENGYUN 1C DEB
1 29776U 99025BS  13291.51522867  .00000509  00000-0  33852-3 0   560
2 29776 099.0785 279.6031 0025131 070.5399 047.1962 14.05776936346969
0 FENGYUN 1C DEB
1 29776U 99025BS  13293.57866294  .00000550  00000-0  36313-3 0   575
2 29776 099.0790 281.6702 0025125 065.0211 049.6041 14.05779210347254
0 FENGYUN 1C DEB
1 29776U 99025BS  13295.78667944  .00000426  00000-0  28775-3 0   587
2 29776 099.0792 283.8822 0025103 059.1024 063.7255 14.05783022347569
